KUIPER-00533            
1 69605U 26140P   26187.81520838  .00020136  00000+0  53669-3 0  9991
2 69605  51.8784 303.7687 0007748 295.4571  64.5614 15.38122794  4253
KUIPER-00534            
1 69606U 26140Q   26187.60327589  .00027814  00000+0  72305-3 0  9995
2 69606  51.8820 304.6070 0013834 234.3584 125.6115 15.38631911  4228
KUIPER-00537            
1 69607U 26140R   26188.08336806  .00014752  00000+0  44689-3 0  9992
2 69607  51.8816 302.8190 0010107  29.5421 208.3058 15.34334712  3961
KUIPER-00538            
1 69608U 26140S   26187.75793163  .00018185  00000+0  49449-3 0  9992
2 69608  51.8807 304.1380 0006306 311.0513  48.9928 15.37585029  4243
KUIPER-00540            
1 69609U 26140T   26188.00003471 -.00026252  00000+0 -70900-3 0  9990
2 69609  51.8815 303.0580 0006239 356.9144 220.6982 15.36845941  3683
KUIPER-00541            
1 69610U 26140U   26187.81562727  .00021209  00000+0  56196-3 0  9990
2 69610  51.8828 303.7809 0007801 292.0307  67.9851 15.38270035  4256
KUIPER-00542            
1 69611U 26140V   26187.81393182  .00019476  00000+0  51739-3 0  9999
2 69611  51.8789 303.7610 0007866 271.4655  88.5431 15.38246807  4254
KUIPER-00543            
1 69612U 26140W   26187.57441795  .00015069  00000+0  42357-3 0  9997
2 69612  51.8795 305.1467 0007643   6.0543 354.0535 15.36692712  4219
KUIPER-00544            
1 69613U 26140X   26187.68764656  .00029367  00000+0  77983-3 0  9993
2 69613  51.8775 304.4125 0006633 287.4279  72.5982 15.38018871  4230
KUIPER-00546            
1 69614U 26140Y   26187.53954882  .00023965  00000+0  62162-3 0  9991
2 69614  51.8789 304.9265 0014919 233.7941 126.1668 15.38770315  4215
KUIPER-00547            
1 69615U 26140Z   26187.68033175  .00021867  00000+0  58862-3 0  9992
2 69615  51.8823 304.3720 0011030 255.9184 104.0577 15.37733363  4238
KUIPER-00549            
1 69616U 26140AA  26187.63276481  .00018423  00000+0  50599-3 0  9990
2 69616  51.8799 304.7931 0007203 346.1785  13.9004 15.37258523  4228
KUIPER-00550            
1 69617U 26140AB  26188.08336806  .00011062  00000+0  34942-3 0  9995
2 69617  51.8805 302.8900 0007271  22.4440 177.2347 15.33302176  3536
KUIPER-00551            
1 69618U 26140AC  26187.67458499  .00021784  00000+0  57942-3 0  9990
2 69618  51.8790 304.3306 0012539 247.9373 112.0283 15.38087756  4232
KUIPER-00554            
1 69619U 26140AD  26187.80881720  .00020306  00000+0  54519-3 0  9999
2 69619  51.8784 303.7282 0011363 257.6853 102.2862 15.37858683  4257
KUIPER-00555            
1 69620U 26140AE  26187.80629929  .00021263  00000+0  56802-3 0  9992
2 69620  51.8815 303.7183 0011558 249.5817 110.3929 15.37981513  4253
KUIPER-00556            
1 69621U 26140AF  26187.67696848  .00021048  00000+0  55872-3 0  9999
2 69621  51.8808 304.3479 0012252 235.8141 124.1685 15.38175703  4238
KUIPER-00557            
1 69622U 26140AG  26187.68243626  .00019827  00000+0  54081-3 0  9996
2 69622  51.8810 304.3847 0009810 264.3826  95.6042 15.37400724  4236
KUIPER-00560            
1 69623U 26140AH  26187.67930737  .00022242  00000+0  57941-3 0  9995
2 69623  51.8789 304.3582 0008831 270.2940  89.7036 15.38755142  4238
KUIPER-00561            
1 69624U 26140AJ  26187.68140149  .00020238  00000+0  53174-3 0  9994
2 69624  51.8820 304.3810 0008039 273.5809  86.4259 15.38558687  4235
KUIPER-00564            
1 69625U 26140AK  26188.08336806  .00004796  00000+0  14022-3 0  9997
2 69625  51.8808 302.3962 0009397 266.4145 178.4681 15.37157781  3543
KUIPER-00567            
1 69626U 26140AL  26187.67480082  .00021436  00000+0  56576-3 0  9998
2 69626  51.8776 304.3294 0012953 236.2840 123.6913 15.38333443  4236
KUIPER-00573            
1 69627U 26140AM  26187.68570902  .00015551  00000+0  42838-3 0  9998
2 69627  51.8786 304.4008 0009379 251.6841 108.3126 15.37282699  4233
KZ-11 R/B               
1 69628U 26138H   26188.12650965  .00705038  96160-5  74554-3 0  9998
2 69628  55.1551 193.7509 0412541 129.3092 234.5283 15.34087962  3007
ZHUQUE-2E DEB           
1 69629U 26128D   26187.36062476  .00262245  00000+0  15046-2 0  9997
2 69629  54.5313 212.5089 0049966  14.2392 346.0042 15.75766727  4205
ZHUQUE-2E DEB           
1 69630U 26128E   26188.10366979  .00013165  00000+0  15197-3 0  9990
2 69630  54.5280 210.6923 0078361  26.6398 333.8626 15.58636196  4287
ZHUQUE-2E DEB           
1 69631U 26128F   26188.10244678  .00204910  00000+0  16538-2 0  9991
2 69631  54.5239 210.0630 0061930  18.9632 341.3688 15.67224313  4297
ZHUQUE-2E DEB           
1 69634U 26128J   26188.05477646  .05156096  11523-4  43087-2 0  9993
2 69634  54.5175 206.9380 0037153  51.9471 308.4925 16.11456920  4214
CENTISPACE-1 GROUP 05 O*
1 69636U 26138J   26187.55642118 -.00000427  00000+0 -13832-3 0  9990
2 69636  55.1387 209.6022 0008945 325.0239  35.0147 14.15845194  2736
VICTUS HAZE PUMA        
1 69646U 26142A   26188.15240225  .00005669  00000+0  25812-3 0  9998
2 69646  97.4474  85.5489 0025226 295.8893  63.9743 15.20808823  2706
