OBJECT_NAME,OBJECT_ID,EPOCH,MEAN_MOTION,ECCENTRICITY,INCLINATION,RA_OF_ASC_NODE,ARG_OF_PERICENTER,MEAN_ANOMALY,EPHEMERIS_TYPE,CLASSIFICATION_TYPE,NORAD_CAT_ID,ELEMENT_SET_NO,REV_AT_EPOCH,BSTAR,MEAN_MOTION_DOT,MEAN_MOTION_DDOT
KUIPER-00533,2026-140P,2026-07-06T19:33:54.004032,15.38122794,.0007748,51.8784,303.7687,295.4571,64.5614,0,U,69605,999,425,.53669E-3,.20136E-3,0
KUIPER-00534,2026-140Q,2026-07-06T14:28:43.036896,15.38631911,.0013834,51.8820,304.6070,234.3584,125.6115,0,U,69606,999,422,.72305E-3,.27814E-3,0
KUIPER-00537,2026-140R,2026-07-07T02:00:03.000384,15.34334712,.0010107,51.8816,302.8190,29.5421,208.3058,0,U,69607,999,396,.44689E-3,.14752E-3,0
KUIPER-00538,2026-140S,2026-07-06T18:11:25.292832,15.37585029,.0006306,51.8807,304.1380,311.0513,48.9928,0,U,69608,999,424,.49449E-3,.18185E-3,0
KUIPER-00540,2026-140T,2026-07-07T00:00:02.998944,15.36845941,.0006239,51.8815,303.0580,356.9144,220.6982,0,U,69609,999,368,-.709E-3,-.26252E-3,0
KUIPER-00541,2026-140U,2026-07-06T19:34:30.196128,15.38270035,.0007801,51.8828,303.7809,292.0307,67.9851,0,U,69610,999,425,.56196E-3,.21209E-3,0
KUIPER-00542,2026-140V,2026-07-06T19:32:03.709248,15.38246807,.0007866,51.8789,303.7610,271.4655,88.5431,0,U,69611,999,425,.51739E-3,.19476E-3,0
KUIPER-00543,2026-140W,2026-07-06T13:47:09.710880,15.36692712,.0007643,51.8795,305.1467,6.0543,354.0535,0,U,69612,999,421,.42357E-3,.15069E-3,0
KUIPER-00544,2026-140X,2026-07-06T16:30:12.662784,15.38018871,.0006633,51.8775,304.4125,287.4279,72.5982,0,U,69613,999,423,.77983E-3,.29367E-3,0
KUIPER-00546,2026-140Y,2026-07-06T12:56:57.018048,15.38770315,.0014919,51.8789,304.9265,233.7941,126.1668,0,U,69614,999,421,.62162E-3,.23965E-3,0
KUIPER-00547,2026-140Z,2026-07-06T16:19:40.663200,15.37733363,.001103,51.8823,304.3720,255.9184,104.0577,0,U,69615,999,423,.58862E-3,.21867E-3,0
KUIPER-00549,2026-140AA,2026-07-06T15:11:10.879584,15.37258523,.0007203,51.8799,304.7931,346.1785,13.9004,0,U,69616,999,422,.50599E-3,.18423E-3,0
KUIPER-00550,2026-140AB,2026-07-07T02:00:03.000384,15.33302176,.0007271,51.8805,302.8900,22.4440,177.2347,0,U,69617,999,353,.34942E-3,.11062E-3,0
KUIPER-00551,2026-140AC,2026-07-06T16:11:24.143136,15.38087756,.0012539,51.8790,304.3306,247.9373,112.0283,0,U,69618,999,423,.57942E-3,.21784E-3,0
KUIPER-00554,2026-140AD,2026-07-06T19:24:41.806080,15.37858683,.0011363,51.8784,303.7282,257.6853,102.2862,0,U,69619,999,425,.54519E-3,.20306E-3,0
KUIPER-00555,2026-140AE,2026-07-06T19:21:04.258656,15.37981513,.0011558,51.8815,303.7183,249.5817,110.3929,0,U,69620,999,425,.56802E-3,.21263E-3,0
KUIPER-00556,2026-140AF,2026-07-06T16:14:50.076672,15.38175703,.0012252,51.8808,304.3479,235.8141,124.1685,0,U,69621,999,423,.55872E-3,.21048E-3,0
KUIPER-00557,2026-140AG,2026-07-06T16:22:42.492864,15.37400724,.000981,51.8810,304.3847,264.3826,95.6042,0,U,69622,999,423,.54081E-3,.19827E-3,0
KUIPER-00560,2026-140AH,2026-07-06T16:18:12.156768,15.38755142,.0008831,51.8789,304.3582,270.2940,89.7036,0,U,69623,999,423,.57941E-3,.22242E-3,0
KUIPER-00561,2026-140AJ,2026-07-06T16:21:13.088736,15.38558687,.0008039,51.8820,304.3810,273.5809,86.4259,0,U,69624,999,423,.53174E-3,.20238E-3,0
KUIPER-00564,2026-140AK,2026-07-07T02:00:03.000384,15.37157781,.0009397,51.8808,302.3962,266.4145,178.4681,0,U,69625,999,354,.14022E-3,.4796E-4,0
KUIPER-00567,2026-140AL,2026-07-06T16:11:42.790848,15.38333443,.0012953,51.8776,304.3294,236.2840,123.6913,0,U,69626,999,423,.56576E-3,.21436E-3,0
KUIPER-00573,2026-140AM,2026-07-06T16:27:25.259328,15.37282699,.0009379,51.8786,304.4008,251.6841,108.3126,0,U,69627,999,423,.42838E-3,.15551E-3,0
KZ-11 R/B,2026-138H,2026-07-07T03:02:10.433760,15.34087962,.0412541,55.1551,193.7509,129.3092,234.5283,0,U,69628,999,300,.74554E-3,.705038E-2,.9616E-5
ZHUQUE-2E DEB,2026-128D,2026-07-06T08:39:17.979264,15.75766727,.00499667,54.5313,212.5089,14.2392,346.0042,0,U,69629,999,420,.15046316E-2,.262245E-2,0
ZHUQUE-2E DEB,2026-128E,2026-07-07T02:29:17.069856,15.58636196,.0078361,54.5280,210.6923,26.6398,333.8626,0,U,69630,999,428,.15197E-3,.13165E-3,0
ZHUQUE-2E DEB,2026-128F,2026-07-07T02:27:31.401792,15.67224313,.006193,54.5239,210.0630,18.9632,341.3688,0,U,69631,999,429,.16538E-2,.20491E-2,0
ZHUQUE-2E DEB,2026-128J,2026-07-07T01:18:52.686144,16.11456920,.0037153,54.5175,206.9380,51.9471,308.4925,0,U,69634,999,421,.43087E-2,.5156096E-1,.11523E-4
CENTISPACE-1 GROUP 05 OBJECT J,2026-138J,2026-07-06T13:21:14.789952,14.15845194,.00089451,55.1387,209.6022,325.0239,35.0147,0,U,69636,999,273,-.1383174E-3,-.427E-5,0
VICTUS HAZE PUMA,2026-142A,2026-07-07T03:39:27.554400,15.20808823,.0025226,97.4474,85.5489,295.8893,63.9743,0,U,69646,999,270,.25812E-3,.5669E-4,0
